CTC1_L_00011001-01
1 45958U 23049UG  26070.40831019  .00000000  00000+0  00000-0 0  9999
2 45958  90.0000   0.0000 0000000   0.0000   0.0000 15.90815360    11
CTC1_L_00011001-02
1 45959U 23229OQ  26070.40831019  .00000000  00000+0  00000-0 0  9990
2 45959  90.0000   0.0000 0000000   0.0000  90.0000 15.90815360    11
CTC1_L_00011001-03
1 45960U 24561RQ  26070.40831019  .00000000  00000+0  00000-0 0  9992
2 45960  90.0000   0.0000 0000000   0.0000 180.0000 15.90815360    13
CTC1_L_00011001-04
1 45961U 25812TQ  26070.40831019  .00000000  00000+0  00000-0 0  9993
2 45961  90.0000   0.0000 0000000   0.0000 270.0000 15.90815360    14
CTC1_L_00011002-01
1 45962U 24133EA  26070.40831019  .00000000  00000+0  00000-0 0  9999
2 45962  90.0000  12.0000 0000000   0.0000  12.0000 15.90815360    12
CTC1_L_00011002-02
1 45963U 22331WD  26070.40831019  .00000000  00000+0  00000-0 0  9998
2 45963  90.0000  12.0000 0000000   0.0000 102.0000 15.90815360    13
CTC1_L_00011002-03
1 45964U 25815QG  26070.40831019  .00000000  00000+0  00000-0 0  9999
2 45964  90.0000  12.0000 0000000   0.0000 192.0000 15.90815360    13
CTC1_L_00011002-04
1 45965U 22047YH  26070.40831019  .00000000  00000+0  00000-0 0  9994
2 45965  90.0000  12.0000 0000000   0.0000 282.0000 15.90815360    14
CTC1_L_00011003-01
1 45966U 23842OK  26070.40831019  .00000000  00000+0  00000-0 0  9999
2 45966  90.0000  24.0000 0000000   0.0000  24.0000 15.90815360    12
CTC1_L_00011003-02
1 45967U 25970BR  26070.40831019  .00000000  00000+0  00000-0 0  9994
2 45967  90.0000  24.0000 0000000   0.0000 114.0000 15.90815360    13
CTC1_L_00011003-03
1 45968U 25557PX  26070.40831019  .00000000  00000+0  00000-0 0  9996
2 45968  90.0000  24.0000 0000000   0.0000 204.0000 15.90815360    14
CTC1_L_00011003-04
1 45969U 22047XC  26070.40831019  .00000000  00000+0  00000-0 0  9998
2 45969  90.0000  24.0000 0000000   0.0000 294.0000 15.90815360    14
CTC1_L_00011004-01
1 45970U 26080EV  26070.40831019  .00000000  00000+0  00000-0 0  9991
2 45970  90.0000  36.0000 0000000   0.0000  36.0000 15.90815360    13
CTC1_L_00011004-02
1 45971U 24329LK  26070.40831019  .00000000  00000+0  00000-0 0  9996
2 45971  90.0000  36.0000 0000000   0.0000 126.0000 15.90815360    14
CTC1_L_00011004-03
1 45972U 23741DL  26070.40831019  .00000000  00000+0  00000-0 0  9994
2 45972  90.0000  36.0000 0000000   0.0000 216.0000 15.90815360    15
CTC1_L_00011004-04
1 45973U 26282TR  26070.40831019  .00000000  00000+0  00000-0 0  9998
2 45973  90.0000  36.0000 0000000   0.0000 306.0000 15.90815360    16
CTC1_L_00011005-01
1 45974U 25485PL  26070.40831019  .00000000  00000+0  00000-0 0  9993
2 45974  90.0000  48.0000 0000000   0.0000  48.0000 15.90815360    13
CTC1_L_00011005-02
1 45975U 25629YG  26070.40831019  .00000000  00000+0  00000-0 0  9994
2 45975  90.0000  48.0000 0000000   0.0000 138.0000 15.90815360    14
CTC1_L_00011005-03
1 45976U 25504JK  26070.40831019  .00000000  00000+0  00000-0 0  9997
2 45976  90.0000  48.0000 0000000   0.0000 228.0000 15.90815360    15
CTC1_L_00011005-04
1 45977U 25623GR  26070.40831019  .00000000  00000+0  00000-0 0  9990
2 45977  90.0000  48.0000 0000000   0.0000 318.0000 15.90815360    16
CTC1_L_00011006-01
1 45978U 24521UA  26070.40831019  .00000000  00000+0  00000-0 0  9997
2 45978  90.0000  60.0000 0000000   0.0000  60.0000 15.90815360    15
CTC1_L_00011006-02
1 45979U 24241DS  26070.40831019  .00000000  00000+0  00000-0 0  9997
2 45979  90.0000  60.0000 0000000   0.0000 150.0000 15.90815360    16
CTC1_L_00011006-03
1 45980U 23511UK  26070.40831019  .00000000  00000+0  00000-0 0  9998
2 45980  90.0000  60.0000 0000000   0.0000 240.0000 15.90815360    18
CTC1_L_00011006-04
1 45981U 22009VJ  26070.40831019  .00000000  00000+0  00000-0 0  9990
2 45981  90.0000  60.0000 0000000   0.0000 330.0000 15.90815360    19
CTC1_L_00011007-01
1 45982U 22321LX  26070.40831019  .00000000  00000+0  00000-0 0  9998
2 45982  90.0000  72.0000 0000000   0.0000  72.0000 15.90815360    16
CTC1_L_00011007-02
1 45983U 26903SB  26070.40831019  .00000000  00000+0  00000-0 0  9999
2 45983  90.0000  72.0000 0000000   0.0000 162.0000 15.90815360    17
CTC1_L_00011007-03
1 45984U 26922O   26070.40831019  .00000000  00000+0  00000-0 0  9991
2 45984  90.0000  72.0000 0000000   0.0000 252.0000 15.90815360    18
CTC1_L_00011007-04
1 45985U 26948Z   26070.40831019  .00000000  00000+0  00000-0 0  9990
2 45985  90.0000  72.0000 0000000   0.0000 342.0000 15.90815360    19
CTC1_L_00011008-01
1 45986U 22819YD  26070.40831019  .00000000  00000+0  00000-0 0  9994
2 45986  90.0000  84.0000 0000000   0.0000  84.0000 15.90815360    16
CTC1_L_00011008-02
1 45987U 23275TJ  26070.40831019  .00000000  00000+0  00000-0 0  9992
2 45987  90.0000  84.0000 0000000   0.0000 174.0000 15.90815360    17
CTC1_L_00011008-03
1 45988U 24220FN  26070.40831019  .00000000  00000+0  00000-0 0  9994
2 45988  90.0000  84.0000 0000000   0.0000 264.0000 15.90815360    18
CTC1_L_00011008-04
1 45989U 24806YE  26070.40831019  .00000000  00000+0  00000-0 0  9995
2 45989  90.0000  84.0000 0000000   0.0000 354.0000 15.90815360    19
CTC1_L_00011009-01
1 45990U 22037ES  26070.40831019  .00000000  00000+0  00000-0 0  9991
2 45990  90.0000  96.0000 0000000   0.0000  96.0000 15.90815360    17
CTC1_L_00011009-02
1 45991U 25453ME  26070.40831019  .00000000  00000+0  00000-0 0  9997
2 45991  90.0000  96.0000 0000000   0.0000 186.0000 15.90815360    18
CTC1_L_00011009-03
1 45992U 25117BR  26070.40831019  .00000000  00000+0  00000-0 0  9995
2 45992  90.0000  96.0000 0000000   0.0000 276.0000 15.90815360    19
CTC1_L_00011009-04
1 45993U 26509EH  26070.40831019  .00000000  00000+0  00000-0 0  9992
2 45993  90.0000  96.0000 0000000   0.0000   6.0000 15.90815360    11
CTC1_L_00011010-01
1 45994U 24388WV  26070.40831019  .00000000  00000+0  00000-0 0  9996
2 45994  90.0000 108.0000 0000000   0.0000 108.0000 15.90815360    19
CTC1_L_00011010-02
1 45995U 24817WA  26070.40831019  .00000000  00000+0  00000-0 0  9994
2 45995  90.0000 108.0000 0000000   0.0000 198.0000 15.90815360    19
CTC1_L_00011010-03
1 45996U 25095TB  26070.40831019  .00000000  00000+0  00000-0 0  9994
2 45996  90.0000 108.0000 0000000   0.0000 288.0000 15.90815360    10
CTC1_L_00011010-04
1 45997U 22537CA  26070.40831019  .00000000  00000+0  00000-0 0  9993
2 45997  90.0000 108.0000 0000000   0.0000  18.0000 15.90815360    12
CTC1_L_00011011-01
1 45998U 25084ZB  26070.40831019  .00000000  00000+0  00000-0 0  9994
2 45998  90.0000 120.0000 0000000   0.0000 120.0000 15.90815360    11
CTC1_L_00011011-02
1 45999U 22448NS  26070.40831019  .00000000  00000+0  00000-0 0  9996
2 45999  90.0000 120.0000 0000000   0.0000 210.0000 15.90815360    12
CTC1_L_00011011-03
1 46000U 24575RC  26070.40831019  .00000000  00000+0  00000-0 0  9993
2 46000  90.0000 120.0000 0000000   0.0000 300.0000 15.90815360    16
CTC1_L_00011011-04
1 46001U 26905OE  26070.40831019  .00000000  00000+0  00000-0 0  9993
2 46001  90.0000 120.0000 0000000   0.0000  30.0000 15.90815360    17
CTC1_L_00011012-01
1 46002U 22623RR  26070.40831019  .00000000  00000+0  00000-0 0  9997
2 46002  90.0000 132.0000 0000000   0.0000 132.0000 15.90815360    14
CTC1_L_00011012-02
1 46003U 23154EI  26070.40831019  .00000000  00000+0  00000-0 0  9998
2 46003  90.0000 132.0000 0000000   0.0000 222.0000 15.90815360    15
CTC1_L_00011012-03
1 46004U 22853OT  26070.40831019  .00000000  00000+0  00000-0 0  9994
2 46004  90.0000 132.0000 0000000   0.0000 312.0000 15.90815360    16
CTC1_L_00011012-04
1 46005U 23967BB  26070.40831019  .00000000  00000+0  00000-0 0  9992
2 46005  90.0000 132.0000 0000000   0.0000  42.0000 15.90815360    17
CTC1_L_00011013-01
1 46006U 23144MO  26070.40831019  .00000000  00000+0  00000-0 0  9990
2 46006  90.0000 144.0000 0000000   0.0000 144.0000 15.90815360    14
CTC1_L_00011013-02
1 46007U 24830KJ  26070.40831019  .00000000  00000+0  00000-0 0  9994
2 46007  90.0000 144.0000 0000000   0.0000 234.0000 15.90815360    15
CTC1_L_00011013-03
1 46008U 24226SZ  26070.40831019  .00000000  00000+0  00000-0 0  9994
2 46008  90.0000 144.0000 0000000   0.0000 324.0000 15.90815360    16
CTC1_L_00011013-04
1 46009U 24847TD  26070.40831019  .00000000  00000+0  00000-0 0  9994
2 46009  90.0000 144.0000 0000000   0.0000  54.0000 15.90815360    17
CTC1_L_00011014-01
1 46010U 22904DN  26070.40831019  .00000000  00000+0  00000-0 0  9998
2 46010  90.0000 156.0000 0000000   0.0000 156.0000 15.90815360    15
CTC1_L_00011014-02
1 46011U 23257LT  26070.40831019  .00000000  00000+0  00000-0 0  9991
2 46011  90.0000 156.0000 0000000   0.0000 246.0000 15.90815360    16
CTC1_L_00011014-03
1 46012U 24329ZG  26070.40831019  .00000000  00000+0  00000-0 0  9993
2 46012  90.0000 156.0000 0000000   0.0000 336.0000 15.90815360    17
CTC1_L_00011014-04
1 46013U 25122QL  26070.40831019  .00000000  00000+0  00000-0 0  9996
2 46013  90.0000 156.0000 0000000   0.0000  66.0000 15.90815360    18
CTC1_L_00011015-01
1 46014U 24762ZF  26070.40831019  .00000000  00000+0  00000-0 0  9996
2 46014  90.0000 168.0000 0000000   0.0000 168.0000 15.90815360    15
CTC1_L_00011015-02
1 46015U 26577JL  26070.40831019  .00000000  00000+0  00000-0 0  9993
2 46015  90.0000 168.0000 0000000   0.0000 258.0000 15.90815360    16
CTC1_L_00011015-03
1 46016U 25125XC  26070.40831019  .00000000  00000+0  00000-0 0  9992
2 46016  90.0000 168.0000 0000000   0.0000 348.0000 15.90815360    17
CTC1_L_00011015-04
1 46017U 22548MN  26070.40831019  .00000000  00000+0  00000-0 0  9999
2 46017  90.0000 168.0000 0000000   0.0000  78.0000 15.90815360    18
CTC1_L_00011016-01
1 46018U 25191JB  26070.40831019  .00000000  00000+0  00000-0 0  9997
2 46018  90.0000 180.0000 0000000   0.0000 180.0000 15.90815360    17
CTC1_L_00011016-02
1 46019U 24623JT  26070.40831019  .00000000  00000+0  00000-0 0  9997
2 46019  90.0000 180.0000 0000000   0.0000 270.0000 15.90815360    18
